[{"OBJECT_NAME":"ONEWEB-0319","OBJECT_ID":"2021-075AG","EPOCH":"2026-03-09T20:22:25.542336","MEAN_MOTION":13.17649349,"ECCENTRICITY":0.00014603,"INCLINATION":87.9152,"RA_OF_ASC_NODE":25.5944,"ARG_OF_PERICENTER":65.9592,"MEAN_ANOMALY":294.1692,"EPHEMERIS_TYPE":0,"CLASSIFICATION_TYPE":"U","NORAD_CAT_ID":49105,"ELEMENT_SET_NO":999,"REV_AT_EPOCH":22052,"BSTAR":-9.5675641e-5,"MEAN_MOTION_DOT":-2.4e-7,"MEAN_MOTION_DDOT":0},{"OBJECT_NAME":"SL-14 DEB","OBJECT_ID":"1991-056Y","EPOCH":"2026-03-09T12:40:05.556576","MEAN_MOTION":13.15664701,"ECCENTRICITY":0.0023415,"INCLINATION":82.6266,"RA_OF_ASC_NODE":230.5038,"ARG_OF_PERICENTER":64.2715,"MEAN_ANOMALY":296.082,"EPHEMERIS_TYPE":0,"CLASSIFICATION_TYPE":"U","NORAD_CAT_ID":45286,"ELEMENT_SET_NO":999,"REV_AT_EPOCH":29068,"BSTAR":0.0007556411,"MEAN_MOTION_DOT":2.98e-6,"MEAN_MOTION_DDOT":0}]
